{"epoch":1784799577,"count":18318,"objects":[{"id":"40044","name":"LEMUR 1","type":"PAYLOAD","l1":"1 40044U 14033AL  26202.65125124  .00001145  00000-0  13692-3 0  9996","l2":"2 40044  97.7917 351.7008 0047252 326.4372  33.3852 14.85349700650584"},{"id":"42837","name":"LEMUR 2 GREENBERG","type":"PAYLOAD","l1":"1 42837U 17042N   26203.75310429  .00018203  00000-0  58441-3 0  9991","l2":"2 42837  97.3840  24.2447 0007626 228.2154 131.8437 15.32329535493837"},{"id":"42838","name":"LEMUR 2 ANDIS","type":"PAYLOAD","l1":"1 42838U 17042P   26203.89268081  .00025440  00000-0  72203-3 0  9996","l2":"2 42838  97.3692  24.6976 0007625 226.7644 133.2964 15.36167769493935"},{"id":"42839","name":"LEMUR 2 MONSON","type":"PAYLOAD","l1":"1 42839U 17042Q   26203.84005514  .00019239  00000-0  68625-3 0  9994","l2":"2 42839  97.4103  24.2472 0005852 214.1377 145.9487 15.28916242493619"},{"id":"42840","name":"LEMUR 2 FURIAUS","type":"PAYLOAD","l1":"1 42840U 17042R   26203.77105475  .00019477  00000-0  64535-3 0  9995","l2":"2 42840  97.3787  22.1377 0005635 297.0956  62.9710 15.31313270493658"},{"id":"42841","name":"LEMUR 2 PETERG","type":"PAYLOAD","l1":"1 42841U 17042S   26203.31147831  .00022664  00000-0  66383-3 0  9993","l2":"2 42841  97.4004  28.4368 0003874 191.0244 169.0915 15.35223729493825"},{"id":"42842","name":"LEMUR 2 DEMBITZ","type":"PAYLOAD","l1":"1 42842U 17042T   26203.00675832  .00017604  00000-0  58480-3 0  9994","l2":"2 42842  97.3839  24.4256 0005275 243.5314 116.5387 15.31253266493679"},{"id":"42845","name":"LEMUR 2 ZACHARY","type":"PAYLOAD","l1":"1 42845U 17042W   26203.84891736  .00062205  00000-0  98230-3 0  9996","l2":"2 42845  97.3582  36.3221 0003079 214.3882 145.7173 15.53295291494730"},{"id":"48269","name":"LEMUR 2 AMANDA-SVANTE","type":"PAYLOAD","l1":"1 48269U 21034B   26203.68147098  .00034377  00000-0  96998-3 0  9993","l2":"2 48269  97.5743 282.9541 0004771 126.4955 233.6728 15.36308179286503"},{"id":"48273","name":"LEMUR 2 SPECIAL K","type":"PAYLOAD","l1":"1 48273U 21034F   26203.50780290  .00310609  00000-0  17881-2 0  9994","l2":"2 48273  97.5623 293.2632 0006148 211.9192 148.1703 15.77833093287231"},{"id":"56970","name":"LEMUR 2 EMBRIONOVIS","type":"PAYLOAD","l1":"1 56970U 23084AQ  26203.40045334  .00015030  00000-0  39880-3 0  9990","l2":"2 56970  97.6329 348.9822 0008890 180.3852 179.7387 15.38367572173092"},{"id":"57391","name":"LEMUR 2 DEVERILL-M-T","type":"PAYLOAD","l1":"1 57391U 23100F   26203.56725221  .00028403  00000-0  68142-3 0  9995","l2":"2 57391  99.4449 252.5916 0004861 266.5325  93.5359 15.41359875166694"},{"id":"58259","name":"LEMUR 2 BASS","type":"PAYLOAD","l1":"1 58259U 23174D   26203.21483171  .00018409  00000-0  40288-3 0  9993","l2":"2 58259  97.3836 288.4427 0007139  57.0694 303.1240 15.44161059150761"},{"id":"58336","name":"LEMUR 2 JK0903EM1407","type":"PAYLOAD","l1":"1 58336U 23174CJ  26203.72115767  .00029041  00000-0  46017-3 0  9998","l2":"2 58336  97.3917 295.2372 0002880   0.1689 359.9564 15.53365971151244"},{"id":"58340","name":"LEMUR 2 MJR092620","type":"PAYLOAD","l1":"1 58340U 23174CN  26203.89846177  .00021635  00000-0  44345-3 0  9990","l2":"2 58340  97.3967 294.6160 0004517   0.8116 359.3139 15.46076593151167"},{"id":"58899","name":"LEMUR 2 NIMBUS2000","type":"PAYLOAD","l1":"1 58899U 24022A   26203.86482880  .00025909  00000-0  62103-3 0  9996","l2":"2 58899  97.4081  54.3440 0007893   1.5254 358.6016 15.41359662137769"}]}